[{"OBJECT_NAME":"STARLINK-6239","OBJECT_ID":"2023-061BB","EPOCH":"2026-03-08T13:30:47.288448","MEAN_MOTION":15.02537229,"ECCENTRICITY":0.00011696,"INCLINATION":43.0027,"RA_OF_ASC_NODE":177.7115,"ARG_OF_PERICENTER":275.8336,"MEAN_ANOMALY":84.2373,"EPHEMERIS_TYPE":0,"CLASSIFICATION_TYPE":"U","NORAD_CAT_ID":56423,"ELEMENT_SET_NO":999,"REV_AT_EPOCH":15688,"BSTAR":6.1795971e-5,"MEAN_MOTION_DOT":6.31e-6,"MEAN_MOTION_DDOT":0},{"OBJECT_NAME":"RE","OBJECT_ID":"2012-048H","EPOCH":"2026-03-09T14:34:58.971936","MEAN_MOTION":15.18958187,"ECCENTRICITY":0.0110372,"INCLINATION":64.6561,"RA_OF_ASC_NODE":148.4253,"ARG_OF_PERICENTER":206.6471,"MEAN_ANOMALY":152.8958,"EPHEMERIS_TYPE":0,"CLASSIFICATION_TYPE":"U","NORAD_CAT_ID":38765,"ELEMENT_SET_NO":999,"REV_AT_EPOCH":10026,"BSTAR":0.00059519,"MEAN_MOTION_DOT":0.00014497,"MEAN_MOTION_DDOT":0}]
